{
  "norad_id": 57462,
  "name": "STARLINK-30088",
  "history": [
    {
      "epoch": "2026-03-28T17:08:44.765664Z",
      "apogee_km": 484.07359095950596,
      "perigee_km": 482.0875429225789,
      "latitude_deg": -2.243255037404819e-05,
      "longitude_deg": 145.60436494382742,
      "height_km": 482.99207292914394,
      "semi_major_axis_km": 6861.217566941043,
      "eccentricity": 0.00014473,
      "inclination_deg": 43.0017,
      "raan_deg": 228.9218,
      "arg_perigee_deg": 262.2097,
      "mean_anomaly_deg": 97.859,
      "mean_motion_rev_day": 15.2756949
    }
  ]
}