{"fetched_at":"2026-03-30T06:02:59Z","count":15439,"tles":[{"name":"STARLINK-30088","line1":"1 57462U 23107F   26087.71440701 -.00000616  00000+0 -12870-4 0  9990","line2":"2 57462  43.0017 228.9218 0001447 262.2097  97.8590 15.27569490148051","category":"Starlink"}]}